ONEWEB-0080             
1 45426U 20020C   25165.74806367 -.00000915  00000+0 -26172-2 0  9991
2 45426  87.8840  94.3009 0002124  89.2482 270.8890 13.11417577254546
ONEWEB-0090             
1 45427U 20020D   25166.07274227 -.00000456  00000+0 -13233-2 0  9997
2 45427  87.8847  94.2360 0002016  78.7409 281.3945 13.11418432254566
ONEWEB-0061             
1 45428U 20020E   25166.02853960  .00000430  00000+0  11773-2 0  9997
2 45428  87.8843  94.2281 0001962  80.1429 279.9920 13.11414846254508
ONEWEB-0081             
1 45429U 20020F   25165.78113555  .00000480  00000+0  13177-2 0  9994
2 45429  87.8844  94.2974 0001799  81.7063 278.4269 13.11417423254580
ONEWEB-0069             
1 45430U 20020G   25166.22789804 -.00000117  00000+0 -36642-3 0  9994
2 45430  87.8845  94.1987 0001895  76.5752 283.5587 13.11418586254581
ONEWEB-0031             
1 45431U 20020H   25166.50510304 -.00000179  00000+0 -54058-3 0  9992
2 45431  87.8848  94.1731 0002220  80.6771 279.4608 13.11415875254599
ONEWEB-0027             
1 45432U 20020J   25165.77564458  .00000052  00000+0  10119-3 0  9998
2 45432  87.9066  78.9927 0002232  72.4557 287.6819 13.17651769257974
ONEWEB-0064             
1 45433U 20020K   25165.81673393 -.00000197  00000+0 -59231-3 0  9993
2 45433  87.8846  94.3032 0002181  78.3077 281.8295 13.11413723254537
